TIANMU-1 21             
1 58662U 23208C   26192.49323655  .00006084  00000+0  17864-3 0  9995
2 58662  97.4520 312.3731 0006331 218.3298 141.7496 15.35508451141298
TIANMU-1 22             
1 58663U 23208D   26192.51336654  .00004608  00000+0  15458-3 0  9999
2 58663  97.4515 308.8605 0002470 236.5859 123.5146 15.31394174141053
TIANMU-1 15             
1 58700U 24004A   26192.54287547  .00003376  00000+0  13062-3 0  9995
2 58700  97.4668  18.7338 0005814 244.1272 115.9368 15.26890699139496
TIANMU-1 16             
1 58701U 24004B   26192.53258885  .00003251  00000+0  12554-3 0  9995
2 58701  97.4616  17.9420 0004333 263.3849  96.6896 15.26993090139491
TIANMU-1 17             
1 58702U 24004C   26192.51806615  .00003485  00000+0  13438-3 0  9995
2 58702  97.4642  18.4214 0003844 270.4224  89.6574 15.26991451139483
TIANMU-1 18             
1 58703U 24004D   26192.55948402  .00003340  00000+0  12924-3 0  9990
2 58703  97.4661  18.7251 0003525 242.2012 117.8870 15.26907401139493
INSAT-3DS               
1 58990U 24033A   26192.51016895 -.00000150  00000+0  00000+0 0  9993
2 58990   0.1017 265.5451 0001046 224.5150  65.0901  1.00271328 47310
METEOR-M2 4             
1 59051U 24039A   26192.52175299 -.00000014  00000+0  13383-4 0  9995
2 59051  98.7023 151.5156 0008236  97.9187 262.2926 14.22431942122720
GOES 19                 
1 60133U 24119A   26192.47874634 -.00000242  00000+0  00000+0 0  9990
2 60133   0.0126 273.0807 0000571 292.1481 181.3045  1.00270047  7203
MTG-S1                  
1 64723U 25143A   26192.36225226 -.00000001  00000+0  00000+0 0  9995
2 64723   0.5864 344.1566 0003483 262.0657 173.0294  1.00272797  3668
METOP-SGA1              
1 65159U 25172A   26192.09992515 -.00000003  00000+0  18982-4 0  9998
2 65159  98.6632 251.3220 0007282 344.6870  15.4085 14.19818728 47180
FENGYUN 3H              
1 65815U 25219A   26192.28140142  .00000002  00000+0  21531-4 0  9993
2 65815  98.6772 132.5826 0001228  62.5904 297.5397 14.19924436 40809
