OBJECT_NAME,OBJECT_ID,EPOCH,MEAN_MOTION,ECCENTRICITY,INCLINATION,RA_OF_ASC_NODE,ARG_OF_PERICENTER,MEAN_ANOMALY,EPHEMERIS_TYPE,CLASSIFICATION_TYPE,NORAD_CAT_ID,ELEMENT_SET_NO,REV_AT_EPOCH,BSTAR,MEAN_MOTION_DOT,MEAN_MOTION_DDOT
TIANMU-1 21,2023-208C,2026-07-11T11:50:15.637920,15.35508451,.0006331,97.4520,312.3731,218.3298,141.7496,0,U,58662,999,14129,.17864E-3,.6084E-4,0
TIANMU-1 22,2023-208D,2026-07-11T12:19:14.869056,15.31394174,.000247,97.4515,308.8605,236.5859,123.5146,0,U,58663,999,14105,.15458E-3,.4608E-4,0
TIANMU-1 15,2024-004A,2026-07-11T13:01:44.440608,15.26890699,.0005814,97.4668,18.7338,244.1272,115.9368,0,U,58700,999,13949,.13062E-3,.3376E-4,0
TIANMU-1 16,2024-004B,2026-07-11T12:46:55.676640,15.26993090,.0004333,97.4616,17.9420,263.3849,96.6896,0,U,58701,999,13949,.12554E-3,.3251E-4,0
TIANMU-1 17,2024-004C,2026-07-11T12:26:00.915360,15.26991451,.0003844,97.4642,18.4214,270.4224,89.6574,0,U,58702,999,13948,.13438E-3,.3485E-4,0
TIANMU-1 18,2024-004D,2026-07-11T13:25:39.419328,15.26907401,.0003525,97.4661,18.7251,242.2012,117.8870,0,U,58703,999,13949,.12924E-3,.334E-4,0
INSAT-3DS,2024-033A,2026-07-11T12:14:38.597280,1.00271328,.0001046,0.1017,265.5451,224.5150,65.0901,0,U,58990,999,4731,0,-.15E-5,0
METEOR-M2 4,2024-039A,2026-07-11T12:31:19.458336,14.22431942,.0008236,98.7023,151.5156,97.9187,262.2926,0,U,59051,999,12272,.13383E-4,-.14E-6,0
GOES 19,2024-119A,2026-07-11T11:29:23.683776,1.00270047,.0000571,0.0126,273.0807,292.1481,181.3045,0,U,60133,999,720,0,-.242E-5,0
MTG-S1,2025-143A,2026-07-11T08:41:38.595264,1.00272797,.0003483,0.5864,344.1566,262.0657,173.0294,0,U,64723,999,366,0,-.1E-7,0
METOP-SGA1,2025-172A,2026-07-11T02:23:53.532960,14.19818728,.0007282,98.6632,251.3220,344.6870,15.4085,0,U,65159,999,4718,.18982E-4,-.3E-7,0
FENGYUN 3H,2025-219A,2026-07-11T06:45:13.082688,14.19924436,.0001228,98.6772,132.5826,62.5904,297.5397,0,U,65815,999,4080,.21531E-4,.2E-7,0
